ENTRYSAT                
1 44429U 98067QP  20085.15878828  .00011581  00000-0  16785-3 0  9991
2 44429  51.6409  36.7384 0002997  36.0499 324.0694 15.56344368 41388
VCC C                   
1 44430U 98067QQ  20084.15762458  .00016908  00000-0  23570-3 0  9991
2 44430  51.6412  41.3101 0003266  42.8387 317.2859 15.57030534 40052
VCC B                   
1 44431U 98067QR  20084.18197080  .00011743  00000-0  17430-3 0  9998
2 44431  51.6413  42.2203 0003465  34.8845 325.2373 15.55677252 41163
ATL-1                   
1 44830U 19084G   20084.74359752  .00039315  00000-0  30827-3 0  9991
2 44830  96.9890 313.4978 0033470 198.7435 161.2599 15.70688519 17125
SMOG-P                  
1 44832U 19084J   20085.10621443  .00037333  00000-0  28663-3 0  9996
2 44832  96.9892 313.9144 0032850 196.0653 163.9572 15.71224990 17189
DUCHIFAT-3              
1 44854U 19089C   20085.10038693  .00000460  00000-0  43683-4 0  9995
2 44854  36.9655 236.8405 0006858  92.3156 267.8380 14.99002674 15633
